     2.100          NAVIGATION                              RINEX VERSION / TYPE
fic2rin                                 03/25/2014 00:34:22 PGM / RUN BY / DATE
                                                            END OF HEADER
 4 14  3 25  0  0  0.0  .628642737865D-05  .113686837722D-12  .000000000000D+00
     .360000000000D+02 -.109375000000D+01  .495056335369D-08  .281689078541D+01
    -.115483999252D-06  .105564801488D-01  .953301787376D-05  .515371036720D+04
     .172800000000D+06  .800937414169D-07 -.579278886959D+00 -.316649675369D-07
     .938519077727D+00  .182281250000D+03  .108536017921D+01 -.805712132573D-08
     .293940815243D-09  .100000000000D+01  .178500000000D+04  .000000000000D+00
     .240000000000D+01  .000000000000D+00 -.605359673500D-08  .360000000000D+02
     .165606000000D+06  .400000000000D+01
 5 14  3 25  0  0  0.0 -.382631085813D-03  .193267624127D-11  .000000000000D+00
     .100000000000D+02  .101875000000D+02  .506021077809D-08  .171125854076D+01
     .568106770515D-06  .358197104651D-02  .689364969730D-05  .515355203247D+04
     .172800000000D+06 -.335276126862D-07  .471555021177D+00 -.186264514923D-08
     .947762472946D+00  .240968750000D+03  .341376680966D+00 -.830070290045D-08
    -.632169189527D-10  .100000000000D+01  .178500000000D+04  .000000000000D+00
     .240000000000D+01  .000000000000D+00 -.102445483208D-07  .100000000000D+02
     .165606000000D+06  .400000000000D+01
 7 14  3 25  0  0  0.0  .327699352056D-03  .420641299570D-11  .000000000000D+00
     .530000000000D+02  .725625000000D+02  .428767859902D-08 -.183017571942D+01
     .358186662197D-05  .709959713276D-02  .723637640476D-05  .515364372063D+04
     .172800000000D+06  .614672899246D-07  .259335859842D+01 -.521540641785D-07
     .973960588385D+00  .247781250000D+03 -.284001926570D+01 -.798676125209D-08
     .218223375594D-09  .100000000000D+01  .178500000000D+04  .000000000000D+00
     .240000000000D+01  .000000000000D+00 -.107102096081D-07  .530000000000D+02
     .165606000000D+06  .400000000000D+01
 8 14  3 25  0  0  0.0  .125006772578D-04  .227373675443D-12  .000000000000D+00
     .420000000000D+02  .702812500000D+02  .381194449707D-08 -.239677033860D+01
     .344403088093D-05  .135426679626D-01  .714510679245D-05  .515348811340D+04
     .172800000000D+06  .223517417908D-07  .269131460115D+01 -.216066837311D-06
     .997192217561D+00  .264781250000D+03 -.278442592391D+01 -.769032033271D-08
     .259653672761D-09  .100000000000D+01  .178500000000D+04  .000000000000D+00
     .240000000000D+01  .000000000000D+00 -.419095158577D-08  .420000000000D+02
     .165606000000D+06  .400000000000D+01
 9 14  3 25  0  0  0.0  .314932316542D-03  .284217094304D-11  .000000000000D+00
     .290000000000D+02  .697500000000D+02  .421874715632D-08 -.732040325744D+00
     .358931720257D-05  .170302570332D-01  .797584652901D-05  .515368611336D+04
     .172800000000D+06 -.203028321266D-06  .257247192160D+01  .912696123123D-07
     .982499629510D+00  .248156250000D+03  .177991571028D+01 -.821105630917D-08
     .259296515026D-09  .100000000000D+01  .178500000000D+04  .000000000000D+00
     .240000000000D+01  .000000000000D+00 -.605359673500D-08  .290000000000D+02
     .165606000000D+06  .400000000000D+01
10 14  3 25  0  0  0.0 -.119271688163D-03 -.136424205266D-11  .000000000000D+00
     .910000000000D+02  .703125000000D+01  .514342853016D-08  .203365772614D+01
     .230967998505D-06  .134884011932D-01  .695697963238D-05  .515371125221D+04
     .172800000000D+06 -.223517417908D-06  .489178591932D+00 -.217929482460D-06
     .942554629412D+00  .236625000000D+03  .860557785800D+00 -.834534761723D-08
    -.210723063176D-10  .100000000000D+01  .178500000000D+04  .000000000000D+00
     .340000000000D+01  .000000000000D+00 -.279396772385D-08  .910000000000D+02
     .165606000000D+06  .400000000000D+01
11 14  3 25  0  0  0.0 -.474928878248D-03 -.318323145621D-11  .000000000000D+00
     .710000000000D+02 -.235000000000D+02  .596774858068D-08 -.163384346441D+01
    -.115297734737D-05  .148069423158D-01  .942125916481D-05  .515370263100D+04
     .172800000000D+06  .322237610817D-06 -.886388834613D+00  .216066837311D-06
     .890258887839D+00  .157656250000D+03  .127179296120D+01 -.863857411700D-08
     .796461747257D-10  .100000000000D+01  .178500000000D+04  .000000000000D+00
     .240000000000D+01  .000000000000D+00 -.116415321827D-07  .710000000000D+02
     .165606000000D+06  .400000000000D+01
12 14  3 25  0  0  0.0  .194265972823D-03  .238742359215D-11  .000000000000D+00
     .610000000000D+02 -.254062500000D+02  .430589364347D-08 -.221184446902D+01
    -.125542283058D-05  .500028941315D-02  .386871397495D-05  .515365469170D+04
     .172800000000D+06  .316649675369D-07 -.262819478723D+01 -.106170773506D-06
     .987137975128D+00  .317312500000D+03  .371119027054D+00 -.819855578847D-08
     .271439877989D-10  .100000000000D+01  .178500000000D+04  .000000000000D+00
     .240000000000D+01  .000000000000D+00 -.121071934700D-07  .610000000000D+02
     .165606000000D+06  .400000000000D+01
13 14  3 25  0  0  0.0  .167917460203D-04 -.386535248253D-11  .000000000000D+00
     .200000000000D+02  .222500000000D+02  .406374069968D-08  .528401608311D+00
     .113807618618D-05  .531312136445D-02  .918842852116D-05  .515361717606D+04
     .172800000000D+06  .242143869400D-07  .162834638735D+01 -.465661287308D-07
     .977936151652D+00  .210531250000D+03  .220905432876D+01 -.790675791963D-08
    -.188936441390D-09  .100000000000D+01  .178500000000D+04  .000000000000D+00
     .240000000000D+01  .000000000000D+00 -.111758708954D-07  .200000000000D+02
     .165606000000D+06  .400000000000D+01
14 14  3 25  0  0  0.0  .187621917576D-03 -.329691829393D-11  .000000000000D+00
     .630000000000D+02  .160625000000D+02  .426732060817D-08  .849717946117D+00
     .776723027229D-06  .730757019483D-02  .991672277451D-05  .515364042664D+04
     .172800000000D+06 -.135973095894D-06  .159692459082D+01 -.130385160446D-07
     .970517846215D+00  .190468750000D+03 -.199441776479D+01 -.805997858760D-08
    -.320370487574D-09  .100000000000D+01  .178500000000D+04  .000000000000D+00
     .240000000000D+01  .000000000000D+00 -.884756445885D-08  .630000000000D+02
     .165606000000D+06  .400000000000D+01
15 14  3 25  0  0  0.0 -.170068349689D-03 -.216004991671D-11  .000000000000D+00
     .950000000000D+02  .205312500000D+02  .505271046567D-08  .260125401850D+00
     .112690031528D-05  .624582672026D-02  .918284058571D-05  .515366522598D+04
     .172800000000D+06  .119209289551D-06  .148696538036D+01  .167638063431D-07
     .937121778838D+00  .189406250000D+03  .267206915749D+00 -.837106297409D-08
    -.300012496725D-09  .100000000000D+01  .178500000000D+04  .000000000000D+00
     .340000000000D+01  .000000000000D+00 -.102445483208D-07  .950000000000D+02
     .165606000000D+06  .400000000000D+01
16 14  3 25  0  0  0.0 -.226303003728D-03  .170530256582D-11  .000000000000D+00
     .520000000000D+02 -.130937500000D+02  .426482050404D-08  .188546397989D+01
    -.486150383949D-06  .766114937142D-02  .422634184361D-05  .515355880928D+04
     .172800000000D+06 -.558793544769D-08 -.260967312814D+01  .195577740669D-06
     .987745721037D+00  .314750000000D+03  .164698020837D+00 -.815319675623D-08
    -.450018745087D-10  .100000000000D+01  .178500000000D+04  .000000000000D+00
     .240000000000D+01  .000000000000D+00 -.977888703346D-08  .520000000000D+02
     .165606000000D+06  .400000000000D+01
17 14  3 25  0  0  0.0 -.792266801000D-04 -.329691829393D-11  .000000000000D+00
     .660000000000D+02 -.785000000000D+02  .438803992233D-08  .912189810218D+00
    -.402890145779D-05  .928343692794D-02  .912696123123D-05  .515356774521D+04
     .172800000000D+06 -.117346644402D-06 -.157674867567D+01  .428408384323D-07
     .967774864576D+00  .211562500000D+03 -.211166481765D+01 -.815033949435D-08
    -.232152527227D-09  .100000000000D+01  .178500000000D+04  .000000000000D+00
     .240000000000D+01  .000000000000D+00 -.102445483208D-07  .660000000000D+02
     .165606000000D+06  .400000000000D+01
18 14  3 25  0  0  0.0  .309172552079D-03  .227373675443D-11  .000000000000D+00
     .780000000000D+02  .121562500000D+02  .537950979246D-08  .255386260153D+01
     .543892383575D-06  .149357039481D-01  .671669840813D-05  .515367380714D+04
     .172800000000D+06  .122934579849D-06  .467628015087D+00 -.186264514923D-06
     .926333040346D+00  .229500000000D+03 -.205296115256D+01 -.826820154664D-08
     .621454457501D-10  .100000000000D+01  .178500000000D+04  .000000000000D+00
     .240000000000D+01  .000000000000D+00 -.107102096081D-07  .780000000000D+02
     .165606000000D+06  .400000000000D+01
19 14  3 25  0  0  0.0 -.446810387075D-03 -.238742359215D-11  .000000000000D+00
     .110000000000D+03 -.716562500000D+02  .445411410316D-08  .151288580177D+00
    -.376626849174D-05  .100724647054D-01  .796839594841D-05  .515359651566D+04
     .172800000000D+06  .838190317154D-07 -.152570717130D+01  .108033418655D-06
     .964917520779D+00  .224718750000D+03  .408405627048D+00 -.822391398760D-08
    -.175364447490D-09  .100000000000D+01  .178500000000D+04  .000000000000D+00
     .340000000000D+01  .000000000000D+00 -.149011611938D-07  .110000000000D+03
     .165606000000D+06  .400000000000D+01
20 14  3 25  0  0  0.0  .173140782863D-03  .352429196937D-11  .000000000000D+00
     .580000000000D+02  .145000000000D+02  .541701135455D-08  .309397413907D+01
     .808387994766D-06  .589356163982D-02  .641308724880D-05  .515354513168D+04
     .172800000000D+06  .540167093277D-07  .414498234658D+00 -.372529029846D-07
     .927321716957D+00  .236968750000D+03  .131484733077D+01 -.844928051788D-08
     .332156692802D-10  .100000000000D+01  .178500000000D+04  .000000000000D+00
     .240000000000D+01  .000000000000D+00 -.791624188423D-08  .580000000000D+02
     .165606000000D+06  .400000000000D+01
